NORAD_CAT_ID,OBJECT_NAME,OBJECT_TYPE,EPOCH,MEAN_MOTION,ECCENTRICITY,INCLINATION,RA_OF_ASC_NODE,ARG_OF_PERICENTER,MEAN_ANOMALY,BSTAR,MEAN_MOTION_DOT,MEAN_MOTION_DDOT,TLE_LINE0,TLE_LINE1,TLE_LINE2,SEMIMAJOR_AXIS,PERIOD,APOGEE,PERIGEE,DECAYED
53835.0,STARLINK-4783,PAYLOAD,2023-11-16 22:02:58,15.08838729,0.0001374,53.216,131.7435,94.6815,265.4334,9.2241e-05,1.18e-05,0.0,0 STARLINK-4783,1 53835U 22114T   23320.91872764  .00001180  00000-0  92241-4 0  9990,2 53835  53.2160 131.7435 0001374  94.6815 265.4334 15.08838729 65453,6917.884,95.438,540.7,538.799,0.0
53835.0,STARLINK-4783,PAYLOAD,2023-11-17 04:24:30,15.08836731,0.0001306,53.2161,130.5535,91.7578,268.3564,7.8926e-05,9.68e-06,0.0,0 STARLINK-4783,1 53835U 22114T   23321.18368991  .00000968  00000-0  78926-4 0  9999,2 53835  53.2161 130.5535 0001306  91.7578 268.3564 15.08836731 64953,6917.89,95.438,540.659,538.852,0.0
53835.0,STARLINK-4783,PAYLOAD,2023-11-17 20:18:22,15.08834877,0.0001353,53.2172,127.5798,87.1434,272.9713,1.2402e-05,-9.1e-07,0.0,0 STARLINK-4783,1 53835U 22114T   23321.84609470 -.00000091  00000-0  12402-4 0  9997,2 53835  53.2172 127.5798 0001353  87.1434 272.9713 15.08834877 65591,6917.896,95.438,540.697,538.825,0.0
53835.0,STARLINK-4783,PAYLOAD,2023-11-18 04:15:18,15.08838113,0.0001401,53.2181,126.0931,86.9423,273.173,5.7344e-05,6.25e-06,0.0,0 STARLINK-4783,1 53835U 22114T   23322.17729230  .00000625  00000-0  57344-4 0  9997,2 53835  53.2181 126.0931 0001401  86.9423 273.1730 15.08838113 65648,6917.886,95.438,540.72,538.782,0.0
53835.0,STARLINK-4783,PAYLOAD,2023-11-19 04:06:05,15.08840063,0.0001665,53.218,121.6329,85.5456,274.5726,9.0626e-05,1.155e-05,0.0,0 STARLINK-4783,1 53835U 22114T   23323.17089131  .00001155  00000-0  90626-4 0  9996,2 53835  53.2180 121.6329 0001665  85.5456 274.5726 15.08840063 65256,6917.88,95.438,540.897,538.593,0.0
53835.0,STARLINK-4783,PAYLOAD,2023-11-19 10:27:37,15.08841985,0.0001859,53.2153,120.4436,85.729,274.3914,0.00010316,1.354e-05,0.0,0 STARLINK-4783,1 53835U 22114T   23323.43585127  .00001354  00000-0  10316-3 0  9999,2 53835  53.2153 120.4436 0001859  85.7290 274.3914 15.08841985 65830,6917.874,95.437,541.025,538.453,0.0
53835.0,STARLINK-4783,PAYLOAD,2023-11-19 16:49:10,15.08836865,0.0001326,53.216,119.2543,88.0628,272.0516,7.8645e-05,9.64e-06,0.0,0 STARLINK-4783,1 53835U 22114T   23323.70081389  .00000964  00000-0  78645-4 0  9996,2 53835  53.2160 119.2543 0001326  88.0628 272.0516 15.08836865 65871,6917.89,95.438,540.672,538.838,0.0
53835.0,STARLINK-4783,PAYLOAD,2023-11-20 13:29:10,15.08846801,0.0001357,53.2169,115.3886,86.8607,273.254,8.0522e-05,9.94e-06,0.0,0 STARLINK-4783,1 53835U 22114T   23324.56192683  .00000994  00000-0  80522-4 0  9991,2 53835  53.2169 115.3886 0001357  86.8607 273.2540 15.08846801 66001,6917.86,95.437,540.663,538.786,0.0
53835.0,STARLINK-4783,PAYLOAD,2023-11-20 16:39:56,15.08848481,0.0001354,53.2169,114.7938,87.8928,272.2219,9.7081e-05,1.258e-05,0.0,0 STARLINK-4783,1 53835U 22114T   23324.69440486  .00001258  00000-0  97081-4 0  9994,2 53835  53.2169 114.7938 0001354  87.8928 272.2219 15.08848481 65485,6917.854,95.437,540.656,538.783,0.0
53835.0,STARLINK-4783,PAYLOAD,2023-11-20 19:50:42,15.08848156,0.0001382,53.217,114.1987,88.57,271.545,0.00014886,2.082e-05,0.0,0 STARLINK-4783,1 53835U 22114T   23324.82688222  .00002082  00000-0  14886-3 0  9998,2 53835  53.2170 114.1987 0001382  88.5700 271.5450 15.08848156 66043,6917.855,95.437,540.677,538.764,0.0
53835.0,STARLINK-4783,PAYLOAD,2023-11-21 10:09:11,15.08840006,0.0001413,53.2172,111.5222,86.5504,273.565,6.8943e-05,8.09e-06,0.0,0 STARLINK-4783,1 53835U 22114T   23325.42305047  .00000809  00000-0  68943-4 0  9995,2 53835  53.2172 111.5222 0001413  86.5504 273.5650 15.08840006 65592,6917.88,95.438,540.723,538.768,0.0
53835.0,STARLINK-4783,PAYLOAD,2023-11-21 13:19:57,15.08841841,0.0001359,53.2171,110.9275,92.9911,267.1236,8.7315e-05,1.102e-05,0.0,0 STARLINK-4783,1 53835U 22114T   23325.55552910  .00001102  00000-0  87315-4 0  9993,2 53835  53.2171 110.9275 0001359  92.9911 267.1236 15.08841841 66154,6917.875,95.437,540.68,538.8,0.0
53835.0,STARLINK-4783,PAYLOAD,2023-11-21 19:41:29,15.08849506,0.0001363,53.2177,109.7381,93.6123,266.5025,0.00012674,1.73e-05,0.0,0 STARLINK-4783,1 53835U 22114T   23325.82048419  .00001730  00000-0  12674-3 0  9999,2 53835  53.2177 109.7381 0001363  93.6123 266.5025 15.08849506 66191,6917.851,95.437,540.659,538.773,0.0
53835.0,STARLINK-4783,PAYLOAD,2023-11-22 09:59:58,15.08842783,0.0001495,53.2181,107.0633,98.3127,261.8034,3.8513e-05,3.25e-06,0.0,0 STARLINK-4783,1 53835U 22114T   23326.41664805  .00000325  00000-0  38513-4 0  9998,2 53835  53.2181 107.0633 0001495  98.3127 261.8034 15.08842783 65747,6917.872,95.437,540.771,538.703,0.0
53835.0,STARLINK-4783,PAYLOAD,2023-11-22 14:46:07,15.08849436,0.0001483,53.217,106.1709,93.3824,266.7338,0.00012861,1.76e-05,0.0,0 STARLINK-4783,1 53835U 22114T   23326.61536508  .00001760  00000-0  12861-3 0  9999,2 53835  53.2170 106.1709 0001483  93.3824 266.7338 15.08849436 66312,6917.852,95.437,540.742,538.691,0.0
53835.0,STARLINK-4783,PAYLOAD,2023-11-22 16:21:30,15.0885262,0.0001433,53.2167,105.8729,92.896,267.2196,0.00016266,2.303e-05,0.0,0 STARLINK-4783,1 53835U 22114T   23326.68160237  .00002303  00000-0  16266-3 0  9995,2 53835  53.2167 105.8729 0001433  92.8960 267.2196 15.08852620 65783,6917.842,95.437,540.698,538.715,0.0
53835.0,STARLINK-4783,PAYLOAD,2023-11-23 09:50:45,15.08839172,0.0001498,53.2181,102.6017,89.4278,270.6886,2.6692e-05,1.37e-06,0.0,0 STARLINK-4783,1 53835U 22114T   23327.41024886  .00000137  00000-0  26692-4 0  9994,2 53835  53.2181 102.6017 0001498  89.4278 270.6886 15.08839172 65892,6917.883,95.438,540.784,538.712,0.0
53835.0,STARLINK-4783,PAYLOAD,2023-11-23 14:36:54,15.08837553,0.0001491,53.2172,101.7075,109.2433,250.872,3.5876e-06,-2.31e-06,0.0,0 STARLINK-4783,1 53835U 22114T   23327.60896976 -.00000231  00000-0  35876-5 0  9993,2 53835  53.2172 101.7075 0001491 109.2433 250.8720 15.08837553 66465,6917.888,95.438,540.784,538.721,0.0
53835.0,STARLINK-4783,PAYLOAD,2023-11-24 08:06:10,15.08832835,0.0001291,53.2168,98.438,91.9955,268.1185,2.3313e-05,8.3e-07,0.0,0 STARLINK-4783,1 53835U 22114T   23328.33761577  .00000083  00000-0  23313-4 0  9998,2 53835  53.2168  98.4380 0001291  91.9955 268.1185 15.08832835 66033,6917.902,95.438,540.66,538.874,0.0
53835.0,STARLINK-4783,PAYLOAD,2023-11-24 14:27:42,15.08839117,0.0001383,53.2173,97.2487,96.8094,263.3056,1.6275e-05,-2.9e-07,0.0,0 STARLINK-4783,1 53835U 22114T   23328.60257312 -.00000029  00000-0  16275-4 0  9995,2 53835  53.2173  97.2487 0001383  96.8094 263.3056 15.08839117 66612,6917.883,95.438,540.705,538.791,0.0
53835.0,STARLINK-4783,PAYLOAD,2023-11-24 19:13:51,15.08846896,0.0001261,53.2169,96.3565,83.4872,276.6263,0.00016153,2.284e-05,0.0,0 STARLINK-4783,1 53835U 22114T   23328.80128988  .00002284  00000-0  16153-3 0  9991,2 53835  53.2169  96.3565 0001261  83.4872 276.6263 15.08846896 66647,6917.859,95.437,540.597,538.852,0.0
53835.0,STARLINK-4783,PAYLOAD,2023-11-25 14:18:29,15.08838973,0.0001938,53.2184,92.7923,50.1986,309.9176,0.00020588,2.99e-05,0.0,0 STARLINK-4783,1 53835U 22114T   23329.59617860  .00002990  00000-0  20588-3 0  9991,2 53835  53.2184  92.7923 0001938  50.1986 309.9176 15.08838973 66763,6917.884,95.438,541.089,538.408,0.0
53835.0,STARLINK-4783,PAYLOAD,2023-11-25 15:53:52,15.08842178,0.0002057,53.2171,92.4941,44.7996,315.3162,0.0003172,4.764e-05,0.0,0 STARLINK-4783,1 53835U 22114T   23329.66241769  .00004764  00000-0  31720-3 0  9991,2 53835  53.2171  92.4941 0002057  44.7996 315.3162 15.08842178 66778,6917.874,95.437,541.162,538.316,0.0
53835.0,STARLINK-4783,PAYLOAD,2023-11-26 07:47:41,15.08878121,0.0001436,53.2178,89.5169,78.9408,281.1746,0.00056608,8.742e-05,0.0,0 STARLINK-4783,1 53835U 22114T   23330.32479129  .00008742  00000-0  56608-3 0  9991,2 53835  53.2178  89.5169 0001436  78.9408 281.1746 15.08878121 66338,6917.764,95.435,540.622,538.635,0.0
53835.0,STARLINK-4783,PAYLOAD,2023-11-26 14:09:15,15.08828297,7.22e-05,53.2184,88.3261,80.4403,279.6671,-0.00043818,-7.252e-05,0.0,0 STARLINK-4783,1 53835U 22114T   23330.58976480 -.00007252  00000-0 -43818-3 0  9997,2 53835  53.2184  88.3261 0000722  80.4403 279.6671 15.08828297 66917,6917.916,95.438,540.281,539.282,0.0
53835.0,STARLINK-4783,PAYLOAD,2023-11-26 17:20:02,15.08815365,0.0001129,53.218,87.7351,64.9899,295.121,-0.00063367,-0.00010352,0.0,0 STARLINK-4783,1 53835U 22114T   23330.72225174 -.00010352  00000-0 -63367-3 0  9996,2 53835  53.2180  87.7351 0001129  64.9899 295.1210 15.08815365 66390,6917.956,95.439,540.602,539.04,0.0
53835.0,STARLINK-4783,PAYLOAD,2023-11-27 12:24:40,15.08823191,0.0001508,53.2182,84.1721,41.0505,319.0601,-0.00021265,-3.669e-05,0.0,0 STARLINK-4783,1 53835U 22114T   23331.51714040 -.00003669  00000-0 -21265-3 0  9993,2 53835  53.2182  84.1721 0001508  41.0505 319.0601 15.08823191 66515,6917.932,95.439,540.84,538.754,0.0
53835.0,STARLINK-4783,PAYLOAD,2023-11-27 14:00:04,15.08828324,0.0001578,53.2188,83.8728,67.7393,292.3766,-0.00011296,-2.085e-05,0.0,0 STARLINK-4783,1 53835U 22114T   23331.58337997 -.00002085  00000-0 -11296-3 0  9996,2 53835  53.2188  83.8728 0001578  67.7393 292.3766 15.08828324 67060,6917.916,95.438,540.873,538.689,0.0
53835.0,STARLINK-4783,PAYLOAD,2023-11-28 12:15:28,15.08845925,0.0001462,53.2179,79.7093,53.836,306.2767,0.00071658,0.00011137,0.0,0 STARLINK-4783,1 53835U 22114T   23332.51074494  .00011137  00000-0  71658-3 0  9994,2 53835  53.2179  79.7093 0001462  53.8360 306.2767 15.08845925 66668,6917.862,95.437,540.739,538.716,0.0
53835.0,STARLINK-4783,PAYLOAD,2023-11-28 13:50:51,15.088522,0.0001369,53.2188,79.4106,86.569,273.5459,0.00086326,0.00013482,0.0,0 STARLINK-4783,1 53835U 22114T   23332.57698247  .00013482  00000-0  86326-3 0  9991,2 53835  53.2188  79.4106 0001369  86.5690 273.5459 15.08852200 67215,6917.843,95.437,540.655,538.761,0.0
